{
"type": "FeatureCollection",
"name": "wne",
"crs": { "type": "name", "properties": { "name": "urn:ogc:def:crs:OGC:1.3:CRS84" } },
"features": [
{ "type": "Feature", "properties": { "NAME": "Weltnaturerbe Buchenwald Grumsin", "SEIT": "29.06.2011", "AREA": 5901123.786, "ha": 590 }, "geometry": { "type": "Polygon", "coordinates": [ [ [ 13.901060122569062, 52.996504000307993 ], [ 13.901253985142102, 52.996523436911708 ], [ 13.901610272612206, 52.99655529924474 ], [ 13.901766310722431, 52.996564070976596 ], [ 13.902004716489079, 52.996605331743055 ], [ 13.902320424941205, 52.996705456785278 ], [ 13.902452897397847, 52.996744656299704 ], [ 13.902685248195533, 52.996789768973223 ], [ 13.902905651357862, 52.996846341774273 ], [ 13.903314359433931, 52.996937461998563 ], [ 13.903628916757764, 52.997011307244662 ], [ 13.903757425838178, 52.996960415055419 ], [ 13.903672183877406, 52.996879810036454 ], [ 13.905312923082953, 52.994958148538743 ], [ 13.905975459434519, 52.994862721894279 ], [ 13.906249579131218, 52.994771528738603 ], [ 13.906830918037107, 52.994815923027367 ], [ 13.907862285327978, 52.994466159891346 ], [ 13.908866327748285, 52.994686237212228 ], [ 13.909635720104479, 52.994459007755673 ], [ 13.910004482325192, 52.994505033673057 ], [ 13.910545906643772, 52.994327151228909 ], [ 13.91073022577058, 52.994271597620653 ], [ 13.910890819947767, 52.994242720118066 ], [ 13.911244441207721, 52.994214493986661 ], [ 13.911665501153768, 52.994162643344112 ], [ 13.911944963316941, 52.994146877440585 ], [ 13.912404179280969, 52.994113192223189 ], [ 13.912678083334999, 52.994112539778484 ], [ 13.913048626998831, 52.994185458821981 ], [ 13.913342191509134, 52.994207026745862 ], [ 13.913609709074979, 52.994202718532023 ], [ 13.913878388225109, 52.994224685850504 ], [ 13.914178008675526, 52.994242397623985 ], [ 13.914290989728666, 52.994263115787433 ], [ 13.914561331524952, 52.994322618889356 ], [ 13.914820062008786, 52.994401090561517 ], [ 13.914915808537296, 52.994420807819324 ], [ 13.91501363963182, 52.994406025993939 ], [ 13.915205942539931, 52.9943005877129 ], [ 13.915378593559931, 52.994225513191843 ], [ 13.915518225242614, 52.994181268000787 ], [ 13.915684783366647, 52.994166665597717 ], [ 13.915855479530162, 52.994172707073126 ], [ 13.916102295728402, 52.994208090394949 ], [ 13.916303729328551, 52.994250579670897 ], [ 13.916444467982737, 52.994288799604476 ], [ 13.916561792027645, 52.99427674056605 ], [ 13.916732078158194, 52.994257535692 ], [ 13.916887667670025, 52.994272769673017 ], [ 13.917096558301159, 52.994306055601612 ], [ 13.917282896469118, 52.994353202852068 ], [ 13.917420247414215, 52.994421220625583 ], [ 13.917580459892855, 52.99449828376126 ], [ 13.917774841342711, 52.99457975200027 ], [ 13.917995565871911, 52.9946473385152 ], [ 13.918151188059081, 52.994664861593463 ], [ 13.918302526747807, 52.994645752347793 ], [ 13.918639434007375, 52.994616519928471 ], [ 13.918954438017167, 52.994560327983692 ], [ 13.919165424121118, 52.994629547863298 ], [ 13.92404875972746, 52.994702541006497 ], [ 13.923997246285527, 52.994518392132477 ], [ 13.923841522799636, 52.993969604054996 ], [ 13.923895023508001, 52.993942327714642 ], [ 13.923602444614955, 52.993022713273966 ], [ 13.923285850385696, 52.991931821510313 ], [ 13.923151827658911, 52.991501526445127 ], [ 13.923016341053019, 52.99103824225638 ], [ 13.922842881447099, 52.990582174982578 ], [ 13.922803188332885, 52.990427658038151 ], [ 13.922732348160071, 52.990187812625152 ], [ 13.92272047227927, 52.989920602991027 ], [ 13.922626049237266, 52.989519377723553 ], [ 13.922609544352264, 52.989394197037484 ], [ 13.922607723799077, 52.989107017166688 ], [ 13.92270962571294, 52.988814857409317 ], [ 13.922897381022224, 52.98848499427654 ], [ 13.92280727429298, 52.988427030005042 ], [ 13.922660300978267, 52.988320467028664 ], [ 13.922573169181454, 52.988206332911126 ], [ 13.922501558692701, 52.988072140217469 ], [ 13.922434682508172, 52.987921364445683 ], [ 13.922359994420699, 52.987717894943273 ], [ 13.922311863765911, 52.987619636012361 ], [ 13.922242893274346, 52.987544823036551 ], [ 13.922162110245353, 52.987450393518436 ], [ 13.921851966490276, 52.987118682596467 ], [ 13.921770599020654, 52.987011057280419 ], [ 13.921717150403246, 52.98691618534906 ], [ 13.921696208764025, 52.986814185075815 ], [ 13.92159531095847, 52.986389954492246 ], [ 13.921471971469762, 52.986322623056452 ], [ 13.920727889834414, 52.985334373680352 ], [ 13.920377507637337, 52.984834945285314 ], [ 13.920207712558881, 52.984583492869326 ], [ 13.920144363163745, 52.984511889096311 ], [ 13.920065054124876, 52.984450446967315 ], [ 13.919900531929491, 52.984317754188382 ], [ 13.919788279995071, 52.984253542954463 ], [ 13.91968164105127, 52.984192542200041 ], [ 13.919592132604141, 52.984147770869974 ], [ 13.919441472035864, 52.984080878552639 ], [ 13.919324633484003, 52.984036548573847 ], [ 13.919196862184329, 52.983992395092287 ], [ 13.918893295944445, 52.983931273377337 ], [ 13.918628871201589, 52.983889326525336 ], [ 13.917974391436065, 52.983793173482603 ], [ 13.917351653870179, 52.98370526809888 ], [ 13.916740087685547, 52.983606194979174 ], [ 13.915891435301624, 52.983464724693626 ], [ 13.915637948489804, 52.98342259470261 ], [ 13.915460841985741, 52.983375931480893 ], [ 13.915188183559003, 52.983271385704278 ], [ 13.914948031188063, 52.983159712933279 ], [ 13.914805195580616, 52.98309453686764 ], [ 13.914499341338502, 52.982934183748 ], [ 13.91424490766286, 52.982810565656145 ], [ 13.914058559396326, 52.982678337012651 ], [ 13.913955392439281, 52.982597358106212 ], [ 13.913868150758708, 52.982595007237641 ], [ 13.913269475133243, 52.982146367460039 ], [ 13.912974081375403, 52.981940764892698 ], [ 13.912626113431577, 52.981672149399898 ], [ 13.912326428938483, 52.981411934458343 ], [ 13.912249912883208, 52.981697609170915 ], [ 13.912158426591883, 52.982560499061883 ], [ 13.91241169697599, 52.982668148880066 ], [ 13.912597465059662, 52.982683892538027 ], [ 13.912392658563318, 52.982962905841916 ], [ 13.912404285994949, 52.983426475393436 ], [ 13.911865485934722, 52.983105547433723 ], [ 13.911111324286766, 52.98255793516482 ], [ 13.910170681655558, 52.98248611630941 ], [ 13.909848860427445, 52.982328677898678 ], [ 13.90901044051102, 52.982356097576123 ], [ 13.908645588305879, 52.98252128092836 ], [ 13.906636182483844, 52.982383440624034 ], [ 13.903771178224293, 52.98272220999138 ], [ 13.903246470083037, 52.982766525729708 ], [ 13.903051029020748, 52.982673434258018 ], [ 13.903116660555309, 52.982379108429967 ], [ 13.903786107104022, 52.982132484883763 ], [ 13.904061646954322, 52.981819027372254 ], [ 13.904411148282513, 52.981801182257016 ], [ 13.9053897595696, 52.981290555810894 ], [ 13.905630702388164, 52.981194463587883 ], [ 13.905759720083013, 52.981153518134107 ], [ 13.905681843478108, 52.981012357777864 ], [ 13.905099530015846, 52.981035084813534 ], [ 13.903847175864641, 52.980869056153722 ], [ 13.903159160229754, 52.980701200195611 ], [ 13.901853653838211, 52.980084233345636 ], [ 13.901802003021327, 52.980099186694218 ], [ 13.901607718664284, 52.980068489076558 ], [ 13.901164826545935, 52.980045526211661 ], [ 13.900946325364471, 52.980030240643266 ], [ 13.900764975110306, 52.98001060380718 ], [ 13.900520113377429, 52.979961931722535 ], [ 13.900337280491176, 52.979908510317983 ], [ 13.900021370362957, 52.97980087106346 ], [ 13.899888128208692, 52.979742899367992 ], [ 13.899564024121974, 52.979590313056335 ], [ 13.899184113280109, 52.979442374216582 ], [ 13.899019941668433, 52.979388652768463 ], [ 13.898729904256664, 52.979303134911291 ], [ 13.898390113337033, 52.979218411415751 ], [ 13.897937390204056, 52.979112952702501 ], [ 13.897509381395681, 52.97900334120979 ], [ 13.897030963231447, 52.97887950743317 ], [ 13.896639616594527, 52.978754281958288 ], [ 13.896053339884876, 52.978583333010519 ], [ 13.895864792141879, 52.978541265255409 ], [ 13.895502109251131, 52.97850197576652 ], [ 13.89532682277221, 52.978478477612818 ], [ 13.895220111203484, 52.978457641694803 ], [ 13.89510619454455, 52.978414382111296 ], [ 13.894972963267788, 52.978356404792066 ], [ 13.894575382569373, 52.97808852855453 ], [ 13.894243118746125, 52.977890981091875 ], [ 13.893848503393741, 52.977690670408222 ], [ 13.893442767576094, 52.977520586859143 ], [ 13.893170096220622, 52.97740472755796 ], [ 13.892822470441752, 52.977282549126478 ], [ 13.892526402729944, 52.977200868661981 ], [ 13.892218884126017, 52.977141908525141 ], [ 13.891785510196531, 52.977051143957716 ], [ 13.891560972288536, 52.977039693844219 ], [ 13.891201658244226, 52.977009926953386 ], [ 13.890736956325423, 52.976981439858669 ], [ 13.8903878762635, 52.976968213183881 ], [ 13.889751414400855, 52.976929506068011 ], [ 13.889420663396661, 52.976908472348924 ], [ 13.888865377170948, 52.976875982179173 ], [ 13.888396009716967, 52.976815829018662 ], [ 13.88795135511733, 52.976751524806552 ], [ 13.887651046431019, 52.976714976519489 ], [ 13.887476426202745, 52.976706481829254 ], [ 13.88710315415339, 52.976752899767149 ], [ 13.88670298955887, 52.976808921576747 ], [ 13.886441794644888, 52.976813069536995 ], [ 13.886204984670114, 52.976805560655066 ], [ 13.885699452075634, 52.976772265732386 ], [ 13.88528049551201, 52.976726325653274 ], [ 13.885074943770706, 52.976722074771807 ], [ 13.884708845098125, 52.976746665518284 ], [ 13.884416719158901, 52.976755056060412 ], [ 13.884187272644162, 52.976773721002097 ], [ 13.884069439792588, 52.976783102623287 ], [ 13.883852920698198, 52.976812831129038 ], [ 13.88371741124852, 52.976845031183665 ], [ 13.883545404569984, 52.976896591770661 ], [ 13.883311697860531, 52.976960399356287 ], [ 13.883028728785408, 52.977036256426075 ], [ 13.882855740730388, 52.977065293234254 ], [ 13.882663605344224, 52.977083363852721 ], [ 13.882564754589637, 52.977099955922135 ], [ 13.882404367382604, 52.977132548697888 ], [ 13.882306495912497, 52.977171663500485 ], [ 13.882244824471824, 52.977221062394015 ], [ 13.882102291609229, 52.977334009628514 ], [ 13.882013028057022, 52.977435504389867 ], [ 13.881858431185107, 52.977523048923182 ], [ 13.881782416811001, 52.977570631592513 ], [ 13.881670637176505, 52.977576158616834 ], [ 13.881563444546957, 52.977544048877071 ], [ 13.881118465896272, 52.977472211329825 ], [ 13.879959138446049, 52.977287717709892 ], [ 13.8794637609136, 52.977201646297885 ], [ 13.878810139793805, 52.977054216555374 ], [ 13.878300537629697, 52.976927044694783 ], [ 13.877143710219396, 52.976656087184601 ], [ 13.875999335546595, 52.976384921992633 ], [ 13.875634409247526, 52.976293017996404 ], [ 13.87555441503622, 52.976170319956267 ], [ 13.875065997937819, 52.97602359074569 ], [ 13.874892652913768, 52.975977920620124 ], [ 13.87432515407334, 52.975806568923211 ], [ 13.873908698589441, 52.975674152395726 ], [ 13.873335151110007, 52.975506647737689 ], [ 13.872798758311015, 52.97533479829049 ], [ 13.872450068623253, 52.975186282718518 ], [ 13.872290216176044, 52.975087379641671 ], [ 13.872155563833966, 52.974995591903635 ], [ 13.871716844972861, 52.974923620890948 ], [ 13.871521955086898, 52.974877858291762 ], [ 13.871321931071972, 52.975001213936572 ], [ 13.871195881628539, 52.97510837844812 ], [ 13.871091895412162, 52.97529407961224 ], [ 13.871063020616869, 52.975489866739139 ], [ 13.871125532877215, 52.975496394914813 ], [ 13.871066756693017, 52.976008190045761 ], [ 13.871034311839839, 52.976121392846466 ], [ 13.871000730488323, 52.976208318723891 ], [ 13.870961255004476, 52.976302850252729 ], [ 13.870793561639918, 52.976598489673897 ], [ 13.8706204586027, 52.976912996204227 ], [ 13.870551833360599, 52.977053063209127 ], [ 13.870524793707002, 52.977147398683996 ], [ 13.870528524971624, 52.977233736889815 ], [ 13.87057038164955, 52.977338256899849 ], [ 13.870690221170136, 52.97766317585274 ], [ 13.870705904284689, 52.977738056632532 ], [ 13.870710447234112, 52.977843164017273 ], [ 13.870696170461684, 52.977944811300731 ], [ 13.870612779928591, 52.978175264503939 ], [ 13.870617971695312, 52.978295387185184 ], [ 13.870692061492141, 52.978425693975439 ], [ 13.870952351393431, 52.978688298748089 ], [ 13.871276785049075, 52.978994969202162 ], [ 13.871277869614218, 52.979163989696261 ], [ 13.871260458177773, 52.979337057904175 ], [ 13.871210606457836, 52.980055313608297 ], [ 13.871160155740304, 52.980615810174548 ], [ 13.871127707737317, 52.980729013013502 ], [ 13.87109066289597, 52.98087985193925 ], [ 13.871000347759336, 52.981238131325576 ], [ 13.870951674299597, 52.981407935380034 ], [ 13.870931502189416, 52.981517188303258 ], [ 13.87098921197437, 52.98170034254948 ], [ 13.871058388068104, 52.981860777769434 ], [ 13.871066503240232, 52.982048469420192 ], [ 13.87101209601142, 52.982229632981721 ], [ 13.870925615865687, 52.982388763192276 ], [ 13.870744649176915, 52.982665829254053 ], [ 13.870638858531477, 52.982810237942068 ], [ 13.870567303667118, 52.98288273567929 ], [ 13.870393760482425, 52.983040279667918 ], [ 13.870190817656784, 52.983187179378156 ], [ 13.870058216025553, 52.98328964934376 ], [ 13.869863269102437, 52.983447873570348 ], [ 13.869750273723533, 52.983564234249812 ], [ 13.869698024881757, 52.983651453100464 ], [ 13.869648046286558, 52.983791225967437 ], [ 13.869617051605085, 52.98393821281465 ], [ 13.869635655103586, 52.984080662687475 ], [ 13.869710887699888, 52.984237247085424 ], [ 13.869837828065419, 52.984438094071528 ], [ 13.869882935042725, 52.98461769074332 ], [ 13.869890883709816, 52.984801628537738 ], [ 13.869840361776102, 52.985072883427151 ], [ 13.869656944042404, 52.985293640477451 ], [ 13.869460597459589, 52.985503331321716 ], [ 13.869383951190086, 52.985602203518418 ], [ 13.869352143573417, 52.985730421015148 ], [ 13.869343595318476, 52.985820708791209 ], [ 13.869338614942468, 52.985993581097894 ], [ 13.869380477486867, 52.9860981008704 ], [ 13.869430345230011, 52.986243815256145 ], [ 13.869548799167148, 52.986392206743183 ], [ 13.869711121020503, 52.98654742054952 ], [ 13.86977018657244, 52.986617862300001 ], [ 13.869892916716246, 52.986721109554203 ], [ 13.870086667724673, 52.986883340984143 ], [ 13.870448318605606, 52.987185671580377 ], [ 13.870906853456281, 52.987569115946478 ], [ 13.871171635839739, 52.987790329288174 ], [ 13.871262620137031, 52.987879049590518 ], [ 13.871441779215056, 52.988135418176846 ], [ 13.871509116272639, 52.98828612533692 ], [ 13.871541371054725, 52.988423091175598 ], [ 13.871583354232126, 52.988674107556456 ], [ 13.871713988281282, 52.988672049657453 ], [ 13.871862748551091, 52.988801179392937 ], [ 13.871965527882184, 52.988874687767698 ], [ 13.872004963806003, 52.988922899426349 ], [ 13.872012646466342, 52.988956585853543 ], [ 13.872032234500166, 52.989121558152185 ], [ 13.872015635445296, 52.989313395345967 ], [ 13.871979837861918, 52.989637008538899 ], [ 13.872593881429871, 52.98957173803165 ], [ 13.873437078503944, 52.990007114208169 ], [ 13.873898392421644, 52.990030066390453 ], [ 13.874325538936459, 52.990182766482675 ], [ 13.874826275348598, 52.990466234670983 ], [ 13.875572590707115, 52.990779896345096 ], [ 13.875926641762543, 52.990783244250075 ], [ 13.87648346056401, 52.990686307054986 ], [ 13.877110498007758, 52.990850176763573 ], [ 13.876966654688163, 52.991053218800523 ], [ 13.877469104600795, 52.991271655323928 ], [ 13.877760613019678, 52.991608880989972 ], [ 13.877141219594487, 52.992337016969856 ], [ 13.876157204232742, 52.992281265030535 ], [ 13.876115845328437, 52.992095055324178 ], [ 13.875778383685578, 52.992045410199943 ], [ 13.875347835128188, 52.992022756433776 ], [ 13.875090724016438, 52.991843796231919 ], [ 13.873670934554942, 52.991375098399956 ], [ 13.875186601391514, 52.992894579370549 ], [ 13.87652683295671, 52.993464707274114 ], [ 13.875992545329499, 52.994175059517012 ], [ 13.877248408481512, 52.994437780552346 ], [ 13.876898635492257, 52.994861860057938 ], [ 13.877123535956217, 52.995096257560135 ], [ 13.87710308037221, 52.995291173957028 ], [ 13.877310420500846, 52.995609023617334 ], [ 13.877717662525653, 52.995938050849368 ], [ 13.878024847556592, 52.995968822746597 ], [ 13.879265137161076, 52.995646046625239 ], [ 13.879563418241105, 52.995425875519913 ], [ 13.879952624799246, 52.995262305822223 ], [ 13.880882577754175, 52.99502949837423 ], [ 13.88127513691483, 52.994735882915101 ], [ 13.881609985943479, 52.99488768794776 ], [ 13.882466830859032, 52.995100145017844 ], [ 13.882642220246474, 52.995464139558301 ], [ 13.882074412719248, 52.995713855165135 ], [ 13.881687991924995, 52.996040496748513 ], [ 13.881307217825196, 52.996473588332506 ], [ 13.882749367367857, 52.99668225776513 ], [ 13.882620629088155, 52.99715389480658 ], [ 13.882889304859436, 52.99700369270942 ], [ 13.883280964679383, 52.996847230154223 ], [ 13.883699306569085, 52.996731663285729 ], [ 13.884088663385775, 52.996665387726793 ], [ 13.88435996888683, 52.996604739847676 ], [ 13.884796588926415, 52.996493386260589 ], [ 13.885065329403217, 52.996360655223654 ], [ 13.885218582264294, 52.996305634497567 ], [ 13.885719599178373, 52.996087326312036 ], [ 13.886167071391615, 52.995926211862262 ], [ 13.88653529597682, 52.995803918049276 ], [ 13.886812650578719, 52.995739411714588 ], [ 13.887097044714237, 52.995693575038459 ], [ 13.887381929624558, 52.995658998946915 ], [ 13.887954646833204, 52.995657413145729 ], [ 13.888366257440383, 52.995673410499897 ], [ 13.888484960063813, 52.99568279313862 ], [ 13.888628221360694, 52.995684272396019 ], [ 13.888739390992873, 52.995663723330331 ], [ 13.888953541471103, 52.995577678357748 ], [ 13.8891610644552, 52.995473148640215 ], [ 13.889491860546228, 52.995358761246202 ], [ 13.889767895222118, 52.995264217900505 ], [ 13.89007520048624, 52.995172932860271 ], [ 13.890416237259501, 52.995141212378812 ], [ 13.890920018130227, 52.995129439783945 ], [ 13.892326249717895, 52.995110808478799 ], [ 13.892499631391912, 52.995089265052357 ], [ 13.892893866641499, 52.994992831662856 ], [ 13.893159420202466, 52.99494352408523 ], [ 13.893461809059536, 52.994882359837483 ], [ 13.89372163294564, 52.994844411378473 ], [ 13.8938026763013, 52.994846876138247 ], [ 13.893909099115188, 52.99486020553168 ], [ 13.893990964822885, 52.994881438901601 ], [ 13.894106239177194, 52.994954729310315 ], [ 13.894317328380001, 52.995225580781316 ], [ 13.894395439655302, 52.995303219855451 ], [ 13.894465027293839, 52.995328405117256 ], [ 13.894578001745844, 52.995349142227298 ], [ 13.894721755266454, 52.995361875507669 ], [ 13.894907908880237, 52.995347637668345 ], [ 13.895558704751164, 52.995280911067169 ], [ 13.895888446250233, 52.995275650112404 ], [ 13.896147479278108, 52.995294219518797 ], [ 13.896352599796424, 52.995329851620724 ], [ 13.896534861548776, 52.995393051567355 ], [ 13.896674204714477, 52.995447173341063 ], [ 13.896886504990739, 52.995579234789098 ], [ 13.897008427279308, 52.995686003268148 ], [ 13.897112947041132, 52.995939769425618 ], [ 13.897204001573021, 52.996028469040631 ], [ 13.897293739192946, 52.996087138534897 ], [ 13.897427193427855, 52.996148866318421 ], [ 13.897566210884964, 52.996195479349616 ], [ 13.89771734273806, 52.99623438596597 ], [ 13.898306298732324, 52.996318887902667 ], [ 13.89861297386957, 52.996355308415744 ], [ 13.898901149157574, 52.996395780107868 ], [ 13.899163284347656, 52.996410372545789 ], [ 13.899543961649972, 52.996430582133641 ], [ 13.899736834259457, 52.996427498568544 ], [ 13.900116192666305, 52.996417676174595 ], [ 13.900408777338331, 52.996416753382164 ], [ 13.90077161486032, 52.996456026377651 ], [ 13.901060122569062, 52.996504000307993 ] ] ] } }
]
}
