{"type": "FeatureCollection", "features": [{"type": "Feature", "properties": {"name": "R13_footprint", "source": "R13_footprint.gpkg, simplified 5 m"}, "geometry": {"type": "MultiPolygon", "coordinates": [[[[13.1645140835555, 52.59884276682889], [13.167379821088565, 52.59735135232719], [13.167735049819555, 52.59695540501191], [13.172869926703454, 52.595867248351325], [13.17370407625689, 52.59537002490457], [13.174753384530627, 52.595152335830626], [13.177122934296795, 52.59496417772725], [13.182281834869327, 52.593868619281686], [13.189163014305288, 52.59096507071823], [13.19158356878435, 52.59026547201686], [13.197632889177594, 52.58911102835565], [13.200486779367466, 52.5879390589873], [13.203618434189263, 52.58632928033137], [13.208318696159457, 52.582872221799775], [13.20752315476014, 52.582364820975904], [13.207188312209768, 52.5813101053954], [13.20714392814541, 52.58076803708051], [13.206904700794299, 52.580629985765], [13.206126666955116, 52.58050955185087], [13.207119501833867, 52.57832954225577], [13.20717469820336, 52.5769768869629], [13.209609450994195, 52.57679275534839], [13.209814375989307, 52.57665958448521], [13.210027075065254, 52.57626135708925], [13.209789158928233, 52.57616568537759], [13.210629413552077, 52.5745339431003], [13.210940089860934, 52.57358474953059], [13.21055479778801, 52.573545779441346], [13.208122855842658, 52.5748514365412], [13.20476061165307, 52.57288166858543], [13.196649381987418, 52.57779117164528], [13.190962490442232, 52.57429212845031], [13.189771660963771, 52.5743641580699], [13.188049844362139, 52.574192338899486], [13.186779853264758, 52.57369226454249], [13.186502179589672, 52.57338968958775], [13.18635681198934, 52.57339667005158], [13.183835137166604, 52.57495458359011], [13.17890072128973, 52.57871092517533], [13.175456725803786, 52.58200941335611], [13.175434092859513, 52.58226319041382], [13.176955622233077, 52.58493653491555], [13.176672828944291, 52.58621385744672], [13.176026567155597, 52.586778448039865], [13.16960527371697, 52.59025000134065], [13.162902963875377, 52.594993004838166], [13.162196616301635, 52.59510726490343], [13.155042623898092, 52.595736289384384], [13.155040464885639, 52.59585963580082], [13.156214363243631, 52.596710276131134], [13.156153659388767, 52.59714760613671], [13.157011942194668, 52.59766553721907], [13.157134143379164, 52.59763613382134], [13.157279225846203, 52.59662925391609], [13.157595189295797, 52.59580181608165], [13.15869245794801, 52.59595699656394], [13.159062232608429, 52.59593696539835], [13.158574456165965, 52.59790530163694], [13.1645140835555, 52.59884276682889]]], [[[13.189295823319961, 52.566473456419395], [13.190635369938478, 52.56557319310787], [13.192169503329955, 52.56537749533317], [13.193885482210325, 52.565536277358134], [13.19503208644769, 52.56447465257901], [13.194968552651982, 52.56351979109551], [13.195464156548397, 52.56219410741214], [13.1934019308349, 52.56200796543428], [13.19247305449214, 52.56181700153404], [13.19161672007224, 52.561772616536715], [13.190471734745511, 52.561987146563865], [13.186725297028973, 52.562268649537394], [13.184580388849223, 52.56254882666734], [13.183197805424019, 52.563612254552226], [13.182261771508623, 52.56410613678713], [13.180879427008728, 52.564211964158254], [13.179003588493526, 52.564194170381086], [13.177765041211945, 52.56469441216576], [13.177820131918699, 52.56475050511336], [13.184257263963946, 52.5657628027866], [13.184425039189522, 52.56572486334003], [13.186828387162326, 52.566142890093204], [13.189295823319961, 52.566473456419395]]], [[[13.155452605748295, 52.595622979827546], [13.162832668289198, 52.594938510899475], [13.169550315817101, 52.5901902239953], [13.175798197977782, 52.586817283911735], [13.176480491407302, 52.586258773980006], [13.176815570373988, 52.584960159166585], [13.17532307395621, 52.58224306449122], [13.175366626274133, 52.58199513433613], [13.178647587996208, 52.57883777697925], [13.18047611798448, 52.57738533505916], [13.18357888930731, 52.57501142132583], [13.186352459527711, 52.573282430908854], [13.18610265998919, 52.57296370858011], [13.185877576214471, 52.57226601715713], [13.185995062426745, 52.57139679188645], [13.186255453516935, 52.570653136005404], [13.187255204115228, 52.56927628159309], [13.187911013449952, 52.56803042472204], [13.18851754578614, 52.567246024758845], [13.185532698477525, 52.56671047280727], [13.180821764081491, 52.56604336560101], [13.175008360157916, 52.56507548724064], [13.172548129482577, 52.56544818493588], [13.172382375727365, 52.565364599993266], [13.171069574647895, 52.5656131821587], [13.171218939262292, 52.56674432773705], [13.169257684591413, 52.568411872178416], [13.166636269608848, 52.567861206356085], [13.164442573773242, 52.56864851872479], [13.162984530004323, 52.567885618294234], [13.159701981894985, 52.56883640767741], [13.159758576345524, 52.56950575185347], [13.154498942369074, 52.570679773410156], [13.153752613509011, 52.567509961129396], [13.153519672810578, 52.567443716704155], [13.15301974192893, 52.56769004457895], [13.152552149972719, 52.56738258299256], [13.152403935561606, 52.56745761280493], [13.152439483801745, 52.5675465597428], [13.151959753580885, 52.56767165933085], [13.150592411114225, 52.568350075439966], [13.151110961603997, 52.56917027823572], [13.151190737935298, 52.57000388303785], [13.152304312753921, 52.57047427905436], [13.15260629029607, 52.57098356342249], [13.152788626357225, 52.57160699461512], [13.152699837058508, 52.57249689541578], [13.153471265196707, 52.57327131212682], [13.153387079088873, 52.574555365921285], [13.153610076667167, 52.574787190184956], [13.15342252406072, 52.57536617867666], [13.153595734994292, 52.57577585175253], [13.153369552481067, 52.57677041642025], [13.153519083772865, 52.57745594496489], [13.153437238610062, 52.57789294511319], [13.153127508056997, 52.57828587730582], [13.153082073740268, 52.578935217556996], [13.152257793484564, 52.58013406141292], [13.151862596207815, 52.580545912859925], [13.15123640349682, 52.581633668933556], [13.151267934618556, 52.582033766457855], [13.151177069720207, 52.582181508868146], [13.150538369910906, 52.5825600891044], [13.149825139193151, 52.582841743299426], [13.149557635044298, 52.583307144617166], [13.14468214801135, 52.58199703567209], [13.144409337370645, 52.581871221038824], [13.142246243138917, 52.584553510747405], [13.141584958673404, 52.58460574333217], [13.141441852933104, 52.58398659429142], [13.14114228601328, 52.58363568908245], [13.140742134642805, 52.58344709705313], [13.140229622655726, 52.58341326622556], [13.14025513108109, 52.584595910390725], [13.138932477232009, 52.58470218982683], [13.13886971241883, 52.58475644820369], [13.140993134448413, 52.58580263453378], [13.143098334647622, 52.58620949591384], [13.142927877259131, 52.58673717412032], [13.143318561930787, 52.586793022017154], [13.143134501830739, 52.58757093101269], [13.14547367486292, 52.587594704004495], [13.146035847284354, 52.588100712907035], [13.147621535276114, 52.59000385977647], [13.148705992292319, 52.590171824181596], [13.149523140932542, 52.59072783981246], [13.150046883396683, 52.591573904985836], [13.150394853114875, 52.59149647403353], [13.151230489778738, 52.59290722012291], [13.151806508913301, 52.59330292684282], [13.15291245807879, 52.593681117849954], [13.15364848688172, 52.59365208475002], [13.15399235283358, 52.59345672354964], [13.154360137979705, 52.59297998558258], [13.155597826184602, 52.59259782634688], [13.155920823724642, 52.592322950294225], [13.15621268839812, 52.59221332303582], [13.157067082610043, 52.59217322155379], [13.157629713826298, 52.59238454195141], [13.15778229425842, 52.592495564179806], [13.157867412990534, 52.592773112542986], [13.157657602392426, 52.592872971702], [13.157288144704712, 52.59331838826794], [13.157392854323374, 52.59406582263441], [13.155235504908969, 52.59416850061927], [13.155452605748295, 52.595622979827546]]]]}}]}