{"type": "FeatureCollection", "features": [{"type": "Feature", "properties": {"name": "R12_footprint", "source": "R12_footprint.gpkg, simplified 5 m"}, "geometry": {"type": "Polygon", "coordinates": [[[13.252856927768095, 52.60657812070072], [13.254292387483265, 52.60592084988377], [13.255993186427759, 52.60536414327693], [13.260746226642318, 52.604346471683456], [13.261299524833797, 52.604981247244076], [13.272583853411884, 52.602776170729506], [13.276984153958722, 52.60198748236969], [13.278907402367745, 52.60109705562288], [13.280281127046553, 52.6001192085756], [13.279694864195045, 52.59981376824089], [13.279522857850635, 52.59863220164665], [13.27985470511711, 52.59790506850797], [13.279611094696735, 52.5978998031084], [13.276884411124636, 52.59983332612291], [13.272707233162016, 52.597839002636476], [13.273311280055339, 52.59732991971552], [13.273315248149789, 52.59708484171405], [13.27141269803038, 52.59601093982074], [13.270451561688693, 52.59586915807929], [13.26866779578563, 52.59581201667223], [13.266314599113846, 52.59524242966399], [13.265580800422324, 52.595015894611514], [13.265392988419531, 52.594531502563655], [13.264268445479743, 52.59472390715039], [13.262929791766103, 52.59459551886459], [13.261437713605428, 52.59426115792094], [13.258645058948469, 52.59312563835744], [13.258451992531043, 52.59241846289881], [13.257902859623114, 52.59168360665183], [13.257596470873185, 52.59147539328168], [13.257104160134972, 52.59073791660084], [13.256891160771435, 52.590033897335374], [13.255727259062459, 52.589434988694], [13.255350302942682, 52.58886320344951], [13.254733184837919, 52.58827234024059], [13.254703603912837, 52.588018135788644], [13.253241445183154, 52.58715240504299], [13.252090271525486, 52.58445617211183], [13.253421082748211, 52.584203053508155], [13.253643957155202, 52.58372987760314], [13.253919238788109, 52.583649348184004], [13.253414561249912, 52.58336914608061], [13.251859834434551, 52.583196010698984], [13.250797905839406, 52.58274702041405], [13.24782277552502, 52.5811666034863], [13.246977883928462, 52.58096247486671], [13.246104674259124, 52.581325879839895], [13.244759243857523, 52.580527370369], [13.243378281904551, 52.580902215998314], [13.24205334588364, 52.57945143006142], [13.241934274986399, 52.57732801291686], [13.241397410253686, 52.57622727743436], [13.241471732062205, 52.57614033901087], [13.24125573760442, 52.575873003112655], [13.24137806134179, 52.57550711363893], [13.240362013364841, 52.57505180364228], [13.239767943466907, 52.57446120129715], [13.239312099725742, 52.573815683021714], [13.239256238194224, 52.57337118709726], [13.23884101960557, 52.57284366101544], [13.238316099793172, 52.571660224128614], [13.238220789939152, 52.57163463720889], [13.236261037406011, 52.572316701231244], [13.2352473204311, 52.57300593427375], [13.235155056364091, 52.57452717687367], [13.233200758833108, 52.57499866074255], [13.232661227391205, 52.5754498097807], [13.232424108757971, 52.57577945030345], [13.230872248630904, 52.57702166586397], [13.230090604369975, 52.57700998274133], [13.230470959950544, 52.57833112769488], [13.228459502308937, 52.57887936458343], [13.228157089981273, 52.57956191616636], [13.22834190798325, 52.57968725106518], [13.228858338751822, 52.58044420277607], [13.229790135596225, 52.58052891813934], [13.231823776542205, 52.58055758172878], [13.232867762942702, 52.58067156947331], [13.234831864154106, 52.58109101854027], [13.235595168445066, 52.581420039848716], [13.238307399412506, 52.58106510150846], [13.240497139076034, 52.58575873003257], [13.239334683805353, 52.586829030699064], [13.238299502092076, 52.58691548525141], [13.23770351225473, 52.587146574302274], [13.236371693716821, 52.588055503865576], [13.235925580602183, 52.587941826088816], [13.235316846985656, 52.58820723978271], [13.23460166690562, 52.589639782160056], [13.232490946957167, 52.59045936808457], [13.230124540400237, 52.59108002080673], [13.229925261475543, 52.59243738262807], [13.225093470693585, 52.593734024886174], [13.224167545800082, 52.59384788945666], [13.223949032590394, 52.594063854888226], [13.224107493105498, 52.59421124264172], [13.223406400189226, 52.5948636329031], [13.224782731242748, 52.596652028172834], [13.223636665993382, 52.59687997816333], [13.223625116475816, 52.59758587013595], [13.223238662444794, 52.59760769311385], [13.222091196933041, 52.59905956883778], [13.223053633927828, 52.599167236836095], [13.223047668661556, 52.59938466369809], [13.223689401810766, 52.59943054483233], [13.223699923357731, 52.59973108238651], [13.224121556418872, 52.59975121707446], [13.227048542738872, 52.59923402406535], [13.22699022441583, 52.598993192451445], [13.226063709381698, 52.59890853680725], [13.225970290035574, 52.598273577832174], [13.227365464858865, 52.598196071796814], [13.22853833529808, 52.59828785576688], [13.228612493944224, 52.598979492887615], [13.23148076378435, 52.598509649397315], [13.231604733144799, 52.59979588175836], [13.231691043264215, 52.599835149691636], [13.233700071339937, 52.59951123904], [13.2335315962249, 52.598272682170965], [13.234805696499736, 52.59810351373209], [13.23468469853028, 52.59758726714938], [13.240482370457915, 52.596951958633554], [13.240681043648337, 52.59737095298315], [13.24114537159809, 52.59731570354229], [13.244882970829483, 52.59778720423402], [13.245254422843873, 52.59778580411752], [13.245378879422907, 52.59772204839213], [13.24774752694318, 52.59768807070025], [13.249441749101068, 52.59800142415871], [13.250051434955614, 52.59949161341657], [13.250056443593515, 52.60036174956217], [13.249814003141605, 52.60146473348445], [13.249875514716198, 52.6025532199457], [13.251235665240321, 52.6042823636228], [13.251540118387274, 52.604540627158435], [13.252272335935151, 52.60559240210079], [13.251932557096794, 52.6056512604782], [13.25214248955796, 52.606289641889504], [13.252499775311694, 52.6062897358209], [13.252856927768095, 52.60657812070072]]]}}]}